{
  "type": "FeatureCollection",
  "features": [
    {
      "type": "Feature",
      "properties": {
        "norad_id": 15362,
        "name": "NOVA 3",
        "group": "nnss",
        "lat": -40.618734718160866,
        "lon": 80.51855239039817,
        "alt_km": 1161.870926322371,
        "timestamp": "2025-12-02T10:50:47.542467+00:00",
        "meta_object_name": "NOVA 3",
        "meta_object_id": "1984-110A",
        "meta_epoch": "2025-12-02T01:02:04.583040",
        "meta_mean_motion": 13.23042528,
        "meta_eccentricity": 0.0031361,
        "meta_inclination": 90.1224,
        "meta_ra_of_asc_node": 80.4087,
        "meta_arg_of_pericenter": 1.9912,
        "meta_mean_anomaly": 171.6056,
        "meta_ephemeris_type": 0,
        "meta_classification_type": "U",
        "meta_norad_cat_id": 15362,
        "meta_element_set_no": 999,
        "meta_rev_at_epoch": 98557,
        "meta_bstar": 0.00012155,
        "meta_mean_motion_dot": 6e-07,
        "meta_mean_motion_ddot": 0,
        "tle_line1": "1 15362U 84110A   25336.04310860  .00000060  00000+0  12155-3 0  9994",
        "tle_line2": "2 15362  90.1224  80.4087 0031361   1.9912 171.6056 13.23042528985570"
      },
      "geometry": {
        "type": "Point",
        "coordinates": [
          80.51855239039817,
          -40.618734718160866
        ]
      }
    },
    {
      "type": "Feature",
      "properties": {
        "norad_id": 15935,
        "name": "OSCAR 30",
        "group": "nnss",
        "lat": -81.10224197622283,
        "lon": 100.73043199593374,
        "alt_km": 1254.7126949441335,
        "timestamp": "2025-12-02T10:50:47.542478+00:00",
        "meta_object_name": "OSCAR 30",
        "meta_object_id": "1985-066A",
        "meta_epoch": "2025-12-02T03:07:39.287712",
        "meta_mean_motion": 13.36075474,
        "meta_eccentricity": 0.0169312,
        "meta_inclination": 90.1645,
        "meta_ra_of_asc_node": 99.6738,
        "meta_arg_of_pericenter": 113.5184,
        "meta_mean_anomaly": 58.873,
        "meta_ephemeris_type": 0,
        "meta_classification_type": "U",
        "meta_norad_cat_id": 15935,
        "meta_element_set_no": 999,
        "meta_rev_at_epoch": 96311,
        "meta_bstar": 0.00018318,
        "meta_mean_motion_dot": 1.12e-06,
        "meta_mean_motion_ddot": 0,
        "tle_line1": "1 15935U 85066A   25336.13031583  .00000112  00000+0  18318-3 0  9998",
        "tle_line2": "2 15935  90.1645  99.6738 0169312 113.5184  58.8730 13.36075474963118"
      },
      "geometry": {
        "type": "Point",
        "coordinates": [
          100.73043199593374,
          -81.10224197622283
        ]
      }
    },
    {
      "type": "Feature",
      "properties": {
        "norad_id": 15936,
        "name": "OSCAR 24",
        "group": "nnss",
        "lat": -2.729087504135736,
        "lon": 92.13196767793714,
        "alt_km": 1193.2621147057507,
        "timestamp": "2025-12-02T10:50:47.542489+00:00",
        "meta_object_name": "OSCAR 24",
        "meta_object_id": "1985-066B",
        "meta_epoch": "2025-12-02T02:43:26.317056",
        "meta_mean_motion": 13.35933196,
        "meta_eccentricity": 0.0170339,
        "meta_inclination": 90.1786,
        "meta_ra_of_asc_node": 92.1175,
        "meta_arg_of_pericenter": 120.0052,
        "meta_mean_anomaly": 52.3274,
        "meta_ephemeris_type": 0,
        "meta_classification_type": "U",
        "meta_norad_cat_id": 15936,
        "meta_element_set_no": 999,
        "meta_rev_at_epoch": 96501,
        "meta_bstar": 0.00011728,
        "meta_mean_motion_dot": 7.5e-07,
        "meta_mean_motion_ddot": 0,
        "tle_line1": "1 15936U 85066B   25336.11349904  .00000075  00000+0  11728-3 0  9992",
        "tle_line2": "2 15936  90.1786  92.1175 0170339 120.0052  52.3274 13.35933196965012"
      },
      "geometry": {
        "type": "Point",
        "coordinates": [
          92.13196767793714,
          -2.729087504135736
        ]
      }
    },
    {
      "type": "Feature",
      "properties": {
        "norad_id": 17070,
        "name": "POLAR BEAR",
        "group": "nnss",
        "lat": -1.4035540877211945,
        "lon": 4.194226602152241,
        "alt_km": 958.8693986188509,
        "timestamp": "2025-12-02T10:50:47.542500+00:00",
        "meta_object_name": "POLAR BEAR",
        "meta_object_id": "1986-088A",
        "meta_epoch": "2025-12-02T03:32:25.117152",
        "meta_mean_motion": 13.75247416,
        "meta_eccentricity": 0.0040177,
        "meta_inclination": 89.6181,
        "meta_ra_of_asc_node": 184.1971,
        "meta_arg_of_pericenter": 150.1394,
        "meta_mean_anomaly": 324.6411,
        "meta_ephemeris_type": 0,
        "meta_classification_type": "U",
        "meta_norad_cat_id": 17070,
        "meta_element_set_no": 999,
        "meta_rev_at_epoch": 95833,
        "meta_bstar": 0.0001285,
        "meta_mean_motion_dot": 1.35e-06,
        "meta_mean_motion_ddot": 0,
        "tle_line1": "1 17070U 86088A   25336.14751293  .00000135  00000+0  12850-3 0  9993",
        "tle_line2": "2 17070  89.6181 184.1971 0040177 150.1394 324.6411 13.75247416958332"
      },
      "geometry": {
        "type": "Point",
        "coordinates": [
          4.194226602152241,
          -1.4035540877211945
        ]
      }
    },
    {
      "type": "Feature",
      "properties": {
        "norad_id": 18361,
        "name": "OSCAR 27",
        "group": "nnss",
        "lat": 60.049071416618375,
        "lon": -100.4627766024496,
        "alt_km": 1137.8024522111773,
        "timestamp": "2025-12-02T10:50:47.542511+00:00",
        "meta_object_name": "OSCAR 27",
        "meta_object_id": "1987-080A",
        "meta_epoch": "2025-12-01T19:57:28.811808",
        "meta_mean_motion": 13.44903069,
        "meta_eccentricity": 0.0102278,
        "meta_inclination": 90.3742,
        "meta_ra_of_asc_node": 78.8642,
        "meta_arg_of_pericenter": 255.4763,
        "meta_mean_anomaly": 103.5022,
        "meta_ephemeris_type": 0,
        "meta_classification_type": "U",
        "meta_norad_cat_id": 18361,
        "meta_element_set_no": 999,
        "meta_rev_at_epoch": 87410,
        "meta_bstar": 0.00018081,
        "meta_mean_motion_dot": 1.17e-06,
        "meta_mean_motion_ddot": 0,
        "tle_line1": "1 18361U 87080A   25335.83158347  .00000117  00000+0  18081-3 0  9998",
        "tle_line2": "2 18361  90.3742  78.8642 0102278 255.4763 103.5022 13.44903069874105"
      },
      "geometry": {
        "type": "Point",
        "coordinates": [
          -100.4627766024496,
          60.049071416618375
        ]
      }
    },
    {
      "type": "Feature",
      "properties": {
        "norad_id": 18362,
        "name": "OSCAR 29",
        "group": "nnss",
        "lat": 30.959680461557735,
        "lon": -100.42910578888194,
        "alt_km": 1138.4852266925982,
        "timestamp": "2025-12-02T10:50:47.542522+00:00",
        "meta_object_name": "OSCAR 29",
        "meta_object_id": "1987-080B",
        "meta_epoch": "2025-12-01T20:23:05.898048",
        "meta_mean_motion": 13.44445223,
        "meta_eccentricity": 0.0103665,
        "meta_inclination": 90.3755,
        "meta_ra_of_asc_node": 79.3229,
        "meta_arg_of_pericenter": 278.8683,
        "meta_mean_anomaly": 196.3233,
        "meta_ephemeris_type": 0,
        "meta_classification_type": "U",
        "meta_norad_cat_id": 18362,
        "meta_element_set_no": 999,
        "meta_rev_at_epoch": 87363,
        "meta_bstar": 0.00015139,
        "meta_mean_motion_dot": 9.8e-07,
        "meta_mean_motion_ddot": 0,
        "tle_line1": "1 18362U 87080B   25335.84937382  .00000098  00000+0  15139-3 0  9993",
        "tle_line2": "2 18362  90.3755  79.3229 0103665 278.8683 196.3233 13.44445223873632"
      },
      "geometry": {
        "type": "Point",
        "coordinates": [
          -100.42910578888194,
          30.959680461557735
        ]
      }
    },
    {
      "type": "Feature",
      "properties": {
        "norad_id": 19070,
        "name": "OSCAR 23",
        "group": "nnss",
        "lat": -0.5849057879709144,
        "lon": -163.929930206123,
        "alt_km": 1032.1607229510955,
        "timestamp": "2025-12-02T10:50:47.542532+00:00",
        "meta_object_name": "OSCAR 23",
        "meta_object_id": "1988-033A",
        "meta_epoch": "2025-12-02T02:58:36.869376",
        "meta_mean_motion": 13.27784639,
        "meta_eccentricity": 0.0188659,
        "meta_inclination": 90.3226,
        "meta_ra_of_asc_node": 16.0631,
        "meta_arg_of_pericenter": 209.4907,
        "meta_mean_anomaly": 205.5212,
        "meta_ephemeris_type": 0,
        "meta_classification_type": "U",
        "meta_norad_cat_id": 19070,
        "meta_element_set_no": 999,
        "meta_rev_at_epoch": 82112,
        "meta_bstar": 0.00021489,
        "meta_mean_motion_dot": 1.14e-06,
        "meta_mean_motion_ddot": 0,
        "tle_line1": "1 19070U 88033A   25336.12403784  .00000114  00000+0  21489-3 0  9999",
        "tle_line2": "2 19070  90.3226  16.0631 0188659 209.4907 205.5212 13.27784639821127"
      },
      "geometry": {
        "type": "Point",
        "coordinates": [
          -163.929930206123,
          -0.5849057879709144
        ]
      }
    }
  ]
}